{"type": "FeatureCollection", "features": [ {"type": "Feature", "properties": {"norad_id": 45358, "name": "COSMOS 2545 (760)", "group": "gnss", "lat": 22.87353646702754, "lon": -29.274975966307608, "alt_km": 19149.002952937433, "timestamp": "2025-12-08T17:43:05.172747+00:00", "meta": {"OBJECT_NAME": "COSMOS 2545 (760)", "OBJECT_ID": "2020-018A", "EPOCH": "2025-12-08T05:39:23.903712", "MEAN_MOTION": 2.13102411, "ECCENTRICITY": 0.00117234, "INCLINATION": 64.4721, "RA_OF_ASC_NODE": 319.1278, "ARG_OF_PERICENTER": 249.0767, "MEAN_ANOMALY": 110.7922, "EPHEMERIS_TYPE": 0, "CLASSIFICATION_TYPE": "U", "NORAD_CAT_ID": 45358, "ELEMENT_SET_NO": 999, "REV_AT_EPOCH": 4459, "BSTAR": 0, "MEAN_MOTION_DOT": -5e-07, "MEAN_MOTION_DDOT": 0}, "tle": {"line1": "1 45358U 20018A   25342.23569333 -.00000050  00000+0  00000+0 0  9990", "line2": "2 45358  64.4721 319.1278 0011723 249.0767 110.7922  2.13102411 44590"}}, "geometry": {"type": "Point", "coordinates": [-29.274975966307608, 22.87353646702754]}}, {"type": "Feature", "properties": {"norad_id": 45807, "name": "BEIDOU-3 G3 (C61)", "group": "gnss", "lat": 0.9356492332337747, "lon": 94.07248668984187, "alt_km": 35780.90327861946, "timestamp": "2025-12-08T17:43:05.172761+00:00", "meta": {"OBJECT_NAME": "BEIDOU-3 G3 (C61)", "OBJECT_ID": "2020-040A", "EPOCH": "2025-12-08T07:16:51.079872", "MEAN_MOTION": 1.00275991, "ECCENTRICITY": 0.00059988, "INCLINATION": 1.9803, "RA_OF_ASC_NODE": 66.5831, "ARG_OF_PERICENTER": 306.2747, "MEAN_ANOMALY": 284.1701, "EPHEMERIS_TYPE": 0, "CLASSIFICATION_TYPE": "U", "NORAD_CAT_ID": 45807, "ELEMENT_SET_NO": 999, "REV_AT_EPOCH": 2015, "BSTAR": 0, "MEAN_MOTION_DOT": -3.52e-06, "MEAN_MOTION_DDOT": 0}, "tle": {"line1": "1 45807U 20040A   25342.30336898 -.00000352  00000+0  00000+0 0  9995", "line2": "2 45807   1.9803  66.5831 0005998 306.2747 284.1701  1.00275991 20151"}}, "geometry": {"type": "Point", "coordinates": [94.07248668984187, 0.9356492332337747]}}, {"type": "Feature", "properties": {"norad_id": 45854, "name": "GPS BIII-3  (PRN 23)", "group": "gnss", "lat": -20.090114766072364, "lon": 22.375451600708526, "alt_km": 20292.814177335527, "timestamp": "2025-12-08T17:43:05.172775+00:00", "meta": {"OBJECT_NAME": "GPS BIII-3  (PRN 23)", "OBJECT_ID": "2020-041A", "EPOCH": "2025-12-07T06:57:27.444672", "MEAN_MOTION": 2.00561718, "ECCENTRICITY": 0.00603563, "INCLINATION": 56.5433, "RA_OF_ASC_NODE": 36.3977, "ARG_OF_PERICENTER": 203.2104, "MEAN_ANOMALY": 166.2515, "EPHEMERIS_TYPE": 0, "CLASSIFICATION_TYPE": "U", "NORAD_CAT_ID": 45854, "ELEMENT_SET_NO": 999, "REV_AT_EPOCH": 4019, "BSTAR": 0, "MEAN_MOTION_DOT": -7.4e-07, "MEAN_MOTION_DDOT": 0}, "tle": {"line1": "1 45854U 20041A   25341.28990098 -.00000074  00000+0  00000+0 0  9993", "line2": "2 45854  56.5433  36.3977 0060356 203.2104 166.2515  2.00561718 40191"}}, "geometry": {"type": "Point", "coordinates": [22.375451600708526, -20.090114766072364]}}, {"type": "Feature", "properties": {"norad_id": 46114, "name": "GALAXY 30 (WAAS/PRN 135)", "group": "gnss", "lat": -0.029919265089367802, "lon": -141.51460943210193, "alt_km": 35778.09931678423, "timestamp": "2025-12-08T17:43:05.172787+00:00", "meta": {"OBJECT_NAME": "GALAXY 30 (WAAS/PRN 135)", "OBJECT_ID": "2020-056C", "EPOCH": "2025-12-08T05:46:43.301280", "MEAN_MOTION": 1.00270993, "ECCENTRICITY": 0.0002437, "INCLINATION": 0.017, "RA_OF_ASC_NODE": 351.6835, "ARG_OF_PERICENTER": 264.3869, "MEAN_ANOMALY": 142.8564, "EPHEMERIS_TYPE": 0, "CLASSIFICATION_TYPE": "U", "NORAD_CAT_ID": 46114, "ELEMENT_SET_NO": 999, "REV_AT_EPOCH": 1937, "BSTAR": 0, "MEAN_MOTION_DOT": 3.9e-07, "MEAN_MOTION_DDOT": 0}, "tle": {"line1": "1 46114U 20056C   25342.24077895  .00000039  00000+0  00000+0 0  9997", "line2": "2 46114   0.0170 351.6835 0002437 264.3869 142.8564  1.00270993 19372"}}, "geometry": {"type": "Point", "coordinates": [-141.51460943210193, -0.029919265089367802]}}, {"type": "Feature", "properties": {"norad_id": 46805, "name": "COSMOS 2547 (705K)", "group": "gnss", "lat": -52.381149923943624, "lon": 56.911332217498284, "alt_km": 19120.480520546585, "timestamp": "2025-12-08T17:43:05.172807+00:00", "meta": {"OBJECT_NAME": "COSMOS 2547 (705K)", "OBJECT_ID": "2020-075A", "EPOCH": "2025-12-07T22:54:27.999936", "MEAN_MOTION": 2.13099949, "ECCENTRICITY": 0.00062185, "INCLINATION": 64.596, "RA_OF_ASC_NODE": 198.8564, "ARG_OF_PERICENTER": 228.8188, "MEAN_ANOMALY": 131.2072, "EPHEMERIS_TYPE": 0, "CLASSIFICATION_TYPE": "U", "NORAD_CAT_ID": 46805, "ELEMENT_SET_NO": 999, "REV_AT_EPOCH": 3983, "BSTAR": 0, "MEAN_MOTION_DOT": 5.3e-07, "MEAN_MOTION_DDOT": 0}, "tle": {"line1": "1 46805U 20075A   25341.95449074  .00000053  00000+0  00000+0 0  9990", "line2": "2 46805  64.5960 198.8564 0006218 228.8188 131.2072  2.13099949 39835"}}, "geometry": {"type": "Point", "coordinates": [56.911332217498284, -52.381149923943624]}}, {"type": "Feature", "properties": {"norad_id": 46826, "name": "GPS BIII-4  (PRN 14)", "group": "gnss", "lat": -40.4147898344549, "lon": -179.6800680116927, "alt_km": 20222.72821771551, "timestamp": "2025-12-08T17:43:05.172819+00:00", "meta": {"OBJECT_NAME": "GPS BIII-4  (PRN 14)", "OBJECT_ID": "2020-078A", "EPOCH": "2025-11-12T03:01:29.191584", "MEAN_MOTION": 2.00567032, "ECCENTRICITY": 0.00639112, "INCLINATION": 54.0223, "RA_OF_ASC_NODE": 219.5836, "ARG_OF_PERICENTER": 203.4986, "MEAN_ANOMALY": 326.7753, "EPHEMERIS_TYPE": 0, "CLASSIFICATION_TYPE": "U", "NORAD_CAT_ID": 46826, "ELEMENT_SET_NO": 999, "REV_AT_EPOCH": 3715, "BSTAR": 0, "MEAN_MOTION_DOT": -3.4e-07, "MEAN_MOTION_DDOT": 0}, "tle": {"line1": "1 46826U 20078A   25316.12603231 -.00000034  00000+0  00000+0 0  9994", "line2": "2 46826  54.0223 219.5836 0063911 203.4986 326.7753  2.00567032 37154"}}, "geometry": {"type": "Point", "coordinates": [-179.6800680116927, -40.4147898344549]}}, {"type": "Feature", "properties": {"norad_id": 48859, "name": "GPS BIII-5  (PRN 11)", "group": "gnss", "lat": 38.03082771865979, "lon": 127.23844757935606, "alt_km": 20191.725683400095, "timestamp": "2025-12-08T17:43:05.172830+00:00", "meta": {"OBJECT_NAME": "GPS BIII-5  (PRN 11)", "OBJECT_ID": "2021-054A", "EPOCH": "2025-11-30T17:12:22.002912", "MEAN_MOTION": 2.00553932, "ECCENTRICITY": 0.0024653, "INCLINATION": 55.2606, "RA_OF_ASC_NODE": 340.4377, "ARG_OF_PERICENTER": 232.9477, "MEAN_ANOMALY": 227.2059, "EPHEMERIS_TYPE": 0, "CLASSIFICATION_TYPE": "U", "NORAD_CAT_ID": 48859, "ELEMENT_SET_NO": 999, "REV_AT_EPOCH": 3277, "BSTAR": 0, "MEAN_MOTION_DOT": -5.5e-07, "MEAN_MOTION_DDOT": 0}, "tle": {"line1": "1 48859U 21054A   25334.71692133 -.00000055  00000+0  00000+0 0  9994", "line2": "2 48859  55.2606 340.4377 0024653 232.9477 227.2059  2.00553932 32777"}}, "geometry": {"type": "Point", "coordinates": [127.23844757935606, 38.03082771865979]}}, {"type": "Feature", "properties": {"norad_id": 49336, "name": "QZS-1R (QZSS/PRN 196)", "group": "gnss", "lat": 24.204028648073095, "lon": 118.87360782277703, "alt_km": 37751.74334263183, "timestamp": "2025-12-08T17:43:05.172842+00:00", "meta": {"OBJECT_NAME": "QZS-1R (QZSS/PRN 196)", "OBJECT_ID": "2021-096A", "EPOCH": "2025-12-05T14:57:38.876832", "MEAN_MOTION": 1.00259301, "ECCENTRICITY": 0.07539341, "INCLINATION": 37.062, "RA_OF_ASC_NODE": 82.4658, "ARG_OF_PERICENTER": 271.1853, "MEAN_ANOMALY": 80.5969, "EPHEMERIS_TYPE": 0, "CLASSIFICATION_TYPE": "U", "NORAD_CAT_ID": 49336, "ELEMENT_SET_NO": 999, "REV_AT_EPOCH": 1507, "BSTAR": 0, "MEAN_MOTION_DOT": -2.6e-06, "MEAN_MOTION_DDOT": 0}, "tle": {"line1": "1 49336U 21096A   25339.62336663 -.00000260  00000+0  00000+0 0  9997", "line2": "2 49336  37.0620  82.4658 0753934 271.1853  80.5969  1.00259301 15077"}}, "geometry": {"type": "Point", "coordinates": [118.87360782277703, 24.204028648073095]}}, {"type": "Feature", "properties": {"norad_id": 49809, "name": "GSAT0223 (GALILEO 27)", "group": "gnss", "lat": -44.979767562336036, "lon": -153.09090975054679, "alt_km": 23213.663288504194, "timestamp": "2025-12-08T17:43:05.172855+00:00", "meta": {"OBJECT_NAME": "GSAT0223 (GALILEO 27)", "OBJECT_ID": "2021-116A", "EPOCH": "2025-12-07T10:58:36.115680", "MEAN_MOTION": 1.70475566, "ECCENTRICITY": 0.00047089, "INCLINATION": 57.2204, "RA_OF_ASC_NODE": 346.8553, "ARG_OF_PERICENTER": 250.7746, "MEAN_ANOMALY": 280.3454, "EPHEMERIS_TYPE": 0, "CLASSIFICATION_TYPE": "U", "NORAD_CAT_ID": 49809, "ELEMENT_SET_NO": 999, "REV_AT_EPOCH": 2491, "BSTAR": 0, "MEAN_MOTION_DOT": -8.4e-07, "MEAN_MOTION_DDOT": 0}, "tle": {"line1": "1 49809U 21116A   25341.45736245 -.00000084  00000+0  00000+0 0  9993", "line2": "2 49809  57.2204 346.8553 0004708 250.7746 280.3454  1.70475566 24919"}}, "geometry": {"type": "Point", "coordinates": [-153.09090975054679, -44.979767562336036]}}, {"type": "Feature", "properties": {"norad_id": 49810, "name": "GSAT0224 (GALILEO 28)", "group": "gnss", "lat": -8.517507407803976, "lon": -18.720944368915358, "alt_km": 23224.48977530755, "timestamp": "2025-12-08T17:43:05.172867+00:00", "meta": {"OBJECT_NAME": "GSAT0224 (GALILEO 28)", "OBJECT_ID": "2021-116B", "EPOCH": "2025-12-07T13:56:35.698272", "MEAN_MOTION": 1.7047563, "ECCENTRICITY": 0.00040182, "INCLINATION": 57.2213, "RA_OF_ASC_NODE": 346.8506, "ARG_OF_PERICENTER": 254.5241, "MEAN_ANOMALY": 105.0474, "EPHEMERIS_TYPE": 0, "CLASSIFICATION_TYPE": "U", "NORAD_CAT_ID": 49810, "ELEMENT_SET_NO": 999, "REV_AT_EPOCH": 2493, "BSTAR": 0, "MEAN_MOTION_DOT": -8.4e-07, "MEAN_MOTION_DDOT": 0}, "tle": {"line1": "1 49810U 21116B   25341.58096873 -.00000084  00000+0  00000+0 0  9995", "line2": "2 49810  57.2213 346.8506 0004018 254.5241 105.0474  1.70475630 24934"}}, "geometry": {"type": "Point", "coordinates": [-18.720944368915358, -8.517507407803976]}}]}